NORAD_CAT_ID,OBJECT_NAME,OBJECT_TYPE,EPOCH,MEAN_MOTION,ECCENTRICITY,INCLINATION,RA_OF_ASC_NODE,ARG_OF_PERICENTER,MEAN_ANOMALY,BSTAR,MEAN_MOTION_DOT,MEAN_MOTION_DDOT,TLE_LINE0,TLE_LINE1,TLE_LINE2,SEMIMAJOR_AXIS,PERIOD,APOGEE,PERIGEE,DECAYED
55656.0,STARLINK-5326,PAYLOAD,2024-02-12 02:04:44,14.98336319,0.000274,69.9995,291.957,265.6411,94.4435,7.4142e-05,7.92e-06,0.0,0 STARLINK-5326,1 55656U 23021AE  24043.08662788  .00000792  00000-0  74142-4 0  9993,2 55656  69.9995 291.9570 0002740 265.6411  94.4435 14.98336319 55463,6950.173,96.107,573.943,570.134,0.0
55656.0,STARLINK-5326,PAYLOAD,2024-02-12 19:42:14,14.98326355,0.0002775,69.9993,290.1056,263.9493,96.135,-3.6285e-05,-5.26e-06,0.0,0 STARLINK-5326,1 55656U 23021AE  24043.82099713 -.00000526  00000-0 -36285-4 0  9990,2 55656  69.9993 290.1056 0002775 263.9493  96.1350 14.98326355 55273,6950.204,96.107,573.998,570.14,0.0
55656.0,STARLINK-5326,PAYLOAD,2024-02-12 22:54:30,14.98325072,0.0002665,69.9996,289.7692,260.8033,99.2825,-1.3382e-05,-2.53e-06,0.0,0 STARLINK-5326,1 55656U 23021AE  24043.95451711 -.00000253  00000-0 -13382-4 0  9994,2 55656  69.9996 289.7692 0002665 260.8033  99.2825 14.98325072 55591,6950.208,96.107,573.925,570.221,0.0
55656.0,STARLINK-5326,PAYLOAD,2024-02-13 10:07:26,14.98330073,0.0002747,69.9995,288.5898,269.0137,91.0707,-2.183e-05,-3.53e-06,0.0,0 STARLINK-5326,1 55656U 23021AE  24044.42183508 -.00000353  00000-0 -21830-4 0  9991,2 55656  69.9995 288.5898 0002747 269.0137  91.0707 14.98330073 55666,6950.193,96.107,573.967,570.148,0.0
55656.0,STARLINK-5326,PAYLOAD,2024-02-13 19:44:14,14.9833334,0.0002903,69.9988,287.5801,267.4002,92.6825,-1.6106e-05,-2.85e-06,0.0,0 STARLINK-5326,1 55656U 23021AE  24044.82239284 -.00000285  00000-0 -16106-4 0  9992,2 55656  69.9988 287.5801 0002903 267.4002  92.6825 14.98333340 55420,6950.183,96.107,574.065,570.03,0.0
55656.0,STARLINK-5326,PAYLOAD,2024-02-13 22:56:30,14.98335781,0.0002896,69.9987,287.2439,268.1806,91.9021,2.1205e-05,1.6e-06,0.0,0 STARLINK-5326,1 55656U 23021AE  24044.95591015  .00000160  00000-0  21205-4 0  9995,2 55656  69.9987 287.2439 0002896 268.1806  91.9021 14.98335781 55740,6950.175,96.107,574.053,570.027,0.0
55656.0,STARLINK-5326,PAYLOAD,2024-02-14 14:57:51,14.98328227,0.0002785,69.9989,285.5605,269.0461,91.0379,5.223e-05,5.3e-06,0.0,0 STARLINK-5326,1 55656U 23021AE  24045.62351359  .00000530  00000-0  52230-4 0  9998,2 55656  69.9989 285.5605 0002785 269.0461  91.0379 14.98328227 55847,6950.198,96.107,573.999,570.128,0.0
55656.0,STARLINK-5326,PAYLOAD,2024-02-14 22:58:32,14.98321199,0.0002765,69.9991,284.7189,269.5346,90.5496,0.00017548,2.001e-05,0.0,0 STARLINK-5326,1 55656U 23021AE  24045.95731521  .00002001  00000-0  17548-3 0  9994,2 55656  69.9991 284.7189 0002765 269.5346  90.5496 14.98321199 55893,6950.22,96.108,574.007,570.163,0.0
55656.0,STARLINK-5326,PAYLOAD,2024-02-15 02:10:48,14.98324398,0.0002818,69.9991,284.3825,269.4561,90.6275,8.7523e-05,9.51e-06,0.0,0 STARLINK-5326,1 55656U 23021AE  24046.09083580  .00000951  00000-0  87523-4 0  9998,2 55656  69.9991 284.3825 0002818 269.4561  90.6275 14.98324398 55613,6950.21,96.107,574.034,570.117,0.0
55656.0,STARLINK-5326,PAYLOAD,2024-02-15 14:59:52,14.98330515,0.0002799,69.9991,283.0361,269.0829,91.001,2.5139e-06,-6.3e-07,0.0,0 STARLINK-5326,1 55656U 23021AE  24046.62491454 -.00000063  00000-0  25139-5 0  9991,2 55656  69.9991 283.0361 0002799 269.0829  91.0010 14.98330515 55996,6950.191,96.107,574.002,570.111,0.0
55656.0,STARLINK-5326,PAYLOAD,2024-02-15 21:24:24,14.98326506,0.0002801,69.9989,282.3629,268.7071,91.3767,7.6399e-05,8.19e-06,0.0,0 STARLINK-5326,1 55656U 23021AE  24046.89195529  .00000819  00000-0  76399-4 0  9995,2 55656  69.9989 282.3629 0002801 268.7071  91.3767 14.98326506 56034,6950.204,96.107,574.015,570.122,0.0
55656.0,STARLINK-5326,PAYLOAD,2024-02-16 02:12:48,14.98332769,0.0002716,69.9991,281.8587,265.4146,94.6702,2.7765e-05,2.38e-06,0.0,0 STARLINK-5326,1 55656U 23021AE  24047.09223168  .00000238  00000-0  27765-4 0  9997,2 55656  69.9991 281.8587 0002716 265.4146  94.6702 14.98332769 55768,6950.184,96.107,573.937,570.162,0.0
55656.0,STARLINK-5326,PAYLOAD,2024-02-16 08:37:21,14.9833169,0.0002729,69.9991,281.185,267.5957,92.4889,1.8195e-05,1.24e-06,0.0,0 STARLINK-5326,1 55656U 23021AE  24047.35927228  .00000124  00000-0  18195-4 0  9995,2 55656  69.9991 281.1850 0002729 267.5957  92.4889 14.98331690 56104,6950.188,96.107,573.949,570.156,0.0
55656.0,STARLINK-5326,PAYLOAD,2024-02-16 21:26:25,14.98330234,0.0002813,69.9987,279.8381,269.5445,90.5392,6.2365e-05,6.51e-06,0.0,0 STARLINK-5326,1 55656U 23021AE  24047.89335147  .00000651  00000-0  62365-4 0  9990,2 55656  69.9987 279.8381 0002813 269.5445  90.5392 14.98330234 56189,6950.192,96.107,574.012,570.102,0.0
55656.0,STARLINK-5326,PAYLOAD,2024-02-17 08:39:21,14.98331443,0.0002804,69.9986,278.6598,269.9399,90.1439,5.6822e-05,5.85e-06,0.0,0 STARLINK-5326,1 55656U 23021AE  24048.36067068  .00000585  00000-0  56822-4 0  9994,2 55656  69.9986 278.6598 0002804 269.9399  90.1439 14.98331443 55952,6950.188,96.107,574.002,570.105,0.0
55656.0,STARLINK-5326,PAYLOAD,2024-02-17 15:03:54,14.98332552,0.0002807,69.9985,277.986,269.8327,90.2511,2.8182e-05,2.43e-06,0.0,0 STARLINK-5326,1 55656U 23021AE  24048.62771052  .00000243  00000-0  28182-4 0  9997,2 55656  69.9985 277.9860 0002807 269.8327  90.2511 14.98332552 56290,6950.185,96.107,574.001,570.099,0.0
55656.0,STARLINK-5326,PAYLOAD,2024-02-17 21:28:26,14.98331464,0.0002849,69.9983,277.3128,268.9787,91.1046,1.2798e-05,6e-07,0.0,0 STARLINK-5326,1 55656U 23021AE  24048.89475125  .00000060  00000-0  12798-4 0  9991,2 55656  69.9983 277.3128 0002849 268.9787  91.1046 14.98331464 56334,6950.188,96.107,574.033,570.073,0.0
55656.0,STARLINK-5326,PAYLOAD,2024-02-18 08:41:22,14.98332345,0.0002884,69.9981,276.1336,269.1671,90.9158,2.2693e-06,-6.6e-07,0.0,0 STARLINK-5326,1 55656U 23021AE  24049.36207026 -.00000066  00000-0  22693-5 0  9990,2 55656  69.9981 276.1336 0002884 269.1671  90.9158 14.98332345 56109,6950.186,96.107,574.055,570.046,0.0
55656.0,STARLINK-5326,PAYLOAD,2024-02-18 15:05:55,14.98331196,0.0002907,69.9979,275.4601,269.0235,91.0591,3.6627e-05,3.44e-06,0.0,0 STARLINK-5326,1 55656U 23021AE  24049.62910957  .00000344  00000-0  36627-4 0  9992,2 55656  69.9979 275.4601 0002907 269.0235  91.0591 14.98331196 56447,6950.189,96.107,574.075,570.034,0.0
55656.0,STARLINK-5326,PAYLOAD,2024-02-18 23:06:35,14.98334408,0.0002913,69.9978,274.6185,269.1909,90.8916,3.3526e-05,3.07e-06,0.0,0 STARLINK-5326,1 55656U 23021AE  24049.96290710  .00000307  00000-0  33526-4 0  9991,2 55656  69.9978 274.6185 0002913 269.1909  90.8916 14.98334408 56492,6950.179,96.107,574.069,570.02,0.0
55656.0,STARLINK-5326,PAYLOAD,2024-02-19 08:43:23,14.98329452,0.0002877,69.9978,273.6082,269.4116,90.6714,-1.9811e-05,-3.29e-06,0.0,0 STARLINK-5326,1 55656U 23021AE  24050.36347097 -.00000329  00000-0 -19811-4 0  9995,2 55656  69.9978 273.6082 0002877 269.4116  90.6714 14.98329452 56250,6950.195,96.107,574.059,570.06,0.0
55656.0,STARLINK-5326,PAYLOAD,2024-02-19 21:32:28,14.98327556,0.0002926,69.9978,272.2618,269.6941,90.3883,-1.78e-05,-3.05e-06,0.0,0 STARLINK-5326,1 55656U 23021AE  24050.89755236 -.00000305  00000-0 -17800-4 0  9991,2 55656  69.9978 272.2618 0002926 269.6941  90.3883 14.98327556 56632,6950.2,96.107,574.099,570.032,0.0
55656.0,STARLINK-5326,PAYLOAD,2024-02-20 00:44:44,14.98327243,0.0002934,69.9978,271.9251,269.8453,90.237,-2.1215e-05,-3.46e-06,0.0,0 STARLINK-5326,1 55656U 23021AE  24051.03107284 -.00000346  00000-0 -21215-4 0  9992,2 55656  69.9978 271.9251 0002934 269.8453  90.2370 14.98327243 56655,6950.201,96.107,574.106,570.027,0.0
55656.0,STARLINK-5326,PAYLOAD,2024-02-20 18:22:12,14.98332697,0.0002907,69.9979,270.0734,270.4258,89.6567,4.1925e-05,4.07e-06,0.0,0 STARLINK-5326,1 55656U 23021AE  24051.76542787  .00000407  00000-0  41925-4 0  9999,2 55656  69.9979 270.0734 0002907 270.4258  89.6567 14.98332697 56461,6950.185,96.107,574.07,570.029,0.0
55656.0,STARLINK-5326,PAYLOAD,2024-02-20 23:10:37,14.98333016,0.0002944,69.9978,269.5684,270.6826,89.3996,1.7106e-05,1.11e-06,0.0,0 STARLINK-5326,1 55656U 23021AE  24051.96570791  .00000111  00000-0  17106-4 0  9993,2 55656  69.9978 269.5684 0002944 270.6826  89.3996 14.98333016 56796,6950.184,96.107,574.095,570.002,0.0
55656.0,STARLINK-5326,PAYLOAD,2024-02-21 13:35:49,14.98329429,0.0002987,69.9979,268.0534,270.6952,89.3864,7.2513e-05,7.72e-06,0.0,0 STARLINK-5326,1 55656U 23021AE  24052.56654768  .00000772  00000-0  72513-4 0  9993,2 55656  69.9979 268.0534 0002987 270.6952  89.3864 14.98329429 56889,6950.195,96.107,574.136,569.984,0.0
55656.0,STARLINK-5326,PAYLOAD,2024-02-21 20:00:21,14.98330505,0.0002994,69.9979,267.3801,270.6144,89.4672,7.7739e-05,8.35e-06,0.0,0 STARLINK-5326,1 55656U 23021AE  24052.83358679  .00000835  00000-0  77739-4 0  9990,2 55656  69.9979 267.3801 0002994 270.6144  89.4672 14.98330505 56626,6950.191,96.107,574.137,569.975,0.0
55656.0,STARLINK-5326,PAYLOAD,2024-02-21 21:36:29,14.98330873,0.0002992,69.9979,267.2117,270.6116,89.47,7.8376e-05,8.42e-06,0.0,0 STARLINK-5326,1 55656U 23021AE  24052.90034644  .00000842  00000-0  78376-4 0  9997,2 55656  69.9979 267.2117 0002992 270.6116  89.4700 14.98330873 56936,6950.19,96.107,574.135,569.976,0.0
55656.0,STARLINK-5326,PAYLOAD,2024-02-22 07:13:18,14.98330423,0.0002985,69.9979,266.2017,270.8955,89.1862,4.3967e-05,4.32e-06,0.0,0 STARLINK-5326,1 55656U 23021AE  24053.30090733  .00000432  00000-0  43967-4 0  9996,2 55656  69.9979 266.2017 0002985 270.8955  89.1862 14.98330423 56992,6950.192,96.107,574.131,569.982,0.0
55656.0,STARLINK-5326,PAYLOAD,2024-02-22 20:02:22,14.9833047,0.0002955,69.9979,264.8551,269.7706,90.3114,-1.3467e-05,-2.54e-06,0.0,0 STARLINK-5326,1 55656U 23021AE  24053.83498836 -.00000254  00000-0 -13467-4 0  9996,2 55656  69.9979 264.8551 0002955 269.7706  90.3114 14.98330470 56779,6950.191,96.107,574.11,570.003,0.0
